{
  "links" : {
    "next" : "https://api.nasa.gov/neo/rest/v1/neo/browse?page=35&size=20&api_key=jqAGvNAwUIBu4fl9FSOjdm3V4F7hIglRzI6pdX9d",
    "prev" : "https://api.nasa.gov/neo/rest/v1/neo/browse?page=33&size=20&api_key=jqAGvNAwUIBu4fl9FSOjdm3V4F7hIglRzI6pdX9d",
    "self" : "https://api.nasa.gov/neo/rest/v1/neo/browse?page=34&size=20&api_key=jqAGvNAwUIBu4fl9FSOjdm3V4F7hIglRzI6pdX9d"
  },
  "page" : {
    "size" : 20,
    "total_elements" : 20750,
    "total_pages" : 1038,
    "number" : 34
  },
  "near_earth_objects" : [ {
    "links" : {
      "self" : "https://api.nasa.gov/neo/rest/v1/neo/3389199?api_key=jqAGvNAwUIBu4fl9FSOjdm3V4F7hIglRzI6pdX9d"
    },
    "neo_reference_id" : "3389199",
    "name" : "(2007 UB2)",
    "nasa_jpl_url" : "http://ssd.jpl.nasa.gov/sbdb.cgi?sstr=3389199",
    "absolute_magnitude_h" : 21.5,
    "estimated_diameter" : {
      "kilometers" : {
        "estimated_diameter_min" : 0.1332155667,
        "estimated_diameter_max" : 0.2978790628
      },
      "meters" : {
        "estimated_diameter_min" : 133.2155666981,
        "estimated_diameter_max" : 297.8790627982
      },
      "miles" : {
        "estimated_diameter_min" : 0.0827762899,
        "estimated_diameter_max" : 0.1850934111
      },
      "feet" : {
        "estimated_diameter_min" : 437.0589598459,
        "estimated_diameter_max" : 977.2935443908
      }
    },
    "is_potentially_hazardous_asteroid" : false,
    "close_approach_data" : [ ],
    "orbital_data" : {
      "orbit_id" : "6",
      "orbit_determination_date" : "2017-04-06 09:05:35",
      "first_observation_date" : null,
      "last_observation_date" : null,
      "data_arc_in_days" : null,
      "observations_used" : null,
      "orbit_uncertainty" : "9",
      "minimum_orbit_intersection" : ".12355",
      "jupiter_tisserand_invariant" : "4.613",
      "epoch_osculation" : "2454392.5",
      "eccentricity" : ".2608177262001426",
      "semi_major_axis" : "1.44122310951016",
      "inclination" : "9.267643657931451",
      "ascending_node_longitude" : "204.8728447691234",
      "orbital_period" : "631.9682395757627",
      "perihelion_distance" : "1.065326575140621",
      "perihelion_argument" : "304.4036699147134",
      "aphelion_distance" : "1.817119643879699",
      "perihelion_time" : "2454564.053019784371",
      "mean_anomaly" : "262.2750143838998",
      "mean_motion" : ".569648880205857",
      "equinox" : "J2000",
      "orbit_class" : null
    },
    "is_sentry_object" : false
  }, {
    "links" : {
      "self" : "https://api.nasa.gov/neo/rest/v1/neo/3389200?api_key=jqAGvNAwUIBu4fl9FSOjdm3V4F7hIglRzI6pdX9d"
    },
    "neo_reference_id" : "3389200",
    "name" : "(2007 UC2)",
    "designation" : "2007 UC2",
    "nasa_jpl_url" : "http://ssd.jpl.nasa.gov/sbdb.cgi?sstr=3389200",
    "absolute_magnitude_h" : 23.0,
    "estimated_diameter" : {
      "kilometers" : {
        "estimated_diameter_min" : 0.0667659413,
        "estimated_diameter_max" : 0.1492931834
      },
      "meters" : {
        "estimated_diameter_min" : 66.7659413495,
        "estimated_diameter_max" : 149.2931834393
      },
      "miles" : {
        "estimated_diameter_min" : 0.0414864197,
        "estimated_diameter_max" : 0.0927664547
      },
      "feet" : {
        "estimated_diameter_min" : 219.0483710172,
        "estimated_diameter_max" : 489.807047955
      }
    },
    "is_potentially_hazardous_asteroid" : false,
    "close_approach_data" : [ {
      "close_approach_date" : "2007-10-24",
      "epoch_date_close_approach" : 1193209200000,
      "relative_velocity" : {
        "kilometers_per_second" : "7.9530799298",
        "kilometers_per_hour" : "28631.0877473981",
        "miles_per_hour" : "17790.244495043"
      },
      "miss_distance" : {
        "astronomical" : "0.092267486",
        "lunar" : "35.8920516968",
        "kilometers" : "13803019",
        "miles" : "8576798"
      },
      "orbiting_body" : "Earth"
    } ],
    "orbital_data" : {
      "orbit_id" : "10",
      "orbit_determination_date" : "2017-04-06 09:05:35",
      "first_observation_date" : "2007-10-18",
      "last_observation_date" : "2007-11-01",
      "data_arc_in_days" : 14,
      "observations_used" : 42,
      "orbit_uncertainty" : "8",
      "minimum_orbit_intersection" : ".0847188",
      "jupiter_tisserand_invariant" : "4.160",
      "epoch_osculation" : "2454393.5",
      "eccentricity" : ".3521102219019637",
      "semi_major_axis" : "1.664522936145502",
      "inclination" : "12.47110300213314",
      "ascending_node_longitude" : "211.6084476655193",
      "orbital_period" : "784.3919042702554",
      "perihelion_distance" : "1.078427395738401",
      "perihelion_argument" : "172.9818974607491",
      "aphelion_distance" : "2.250618476552602",
      "perihelion_time" : "2454394.111291145815",
      "mean_anomaly" : "359.7194453291838",
      "mean_motion" : ".4589542523834682",
      "equinox" : "J2000",
      "orbit_class" : {
        "orbit_class_type" : "AMO",
        "orbit_class_range" : "1.017 AU < q (perihelion) < 1.3 AU",
        "orbit_class_description" : "Near-Earth asteroid orbits similar to that of 1221 Amor"
      }
    },
    "is_sentry_object" : false
  }, {
    "links" : {
      "self" : "https://api.nasa.gov/neo/rest/v1/neo/3389363?api_key=jqAGvNAwUIBu4fl9FSOjdm3V4F7hIglRzI6pdX9d"
    },
    "neo_reference_id" : "3389363",
    "name" : "(2007 UU3)",
    "designation" : "2007 UU3",
    "nasa_jpl_url" : "http://ssd.jpl.nasa.gov/sbdb.cgi?sstr=3389363",
    "absolute_magnitude_h" : 23.8,
    "estimated_diameter" : {
      "kilometers" : {
        "estimated_diameter_min" : 0.046190746,
        "estimated_diameter_max" : 0.1032856481
      },
      "meters" : {
        "estimated_diameter_min" : 46.1907460282,
        "estimated_diameter_max" : 103.2856480504
      },
      "miles" : {
        "estimated_diameter_min" : 0.0287015901,
        "estimated_diameter_max" : 0.0641787064
      },
      "feet" : {
        "estimated_diameter_min" : 151.544447199,
        "estimated_diameter_max" : 338.8636855496
      }
    },
    "is_potentially_hazardous_asteroid" : false,
    "close_approach_data" : [ {
      "close_approach_date" : "2007-10-25",
      "epoch_date_close_approach" : 1193295600000,
      "relative_velocity" : {
        "kilometers_per_second" : "10.2856347967",
        "kilometers_per_hour" : "37028.2852681841",
        "miles_per_hour" : "23007.936476778"
      },
      "miss_distance" : {
        "astronomical" : "0.0498711853",
        "lunar" : "19.3998908997",
        "kilometers" : "7460623",
        "miles" : "4635816"
      },
      "orbiting_body" : "Earth"
    } ],
    "orbital_data" : {
      "orbit_id" : "10",
      "orbit_determination_date" : "2017-04-06 09:05:33",
      "first_observation_date" : "2007-10-19",
      "last_observation_date" : "2007-10-29",
      "data_arc_in_days" : 10,
      "observations_used" : 20,
      "orbit_uncertainty" : "8",
      "minimum_orbit_intersection" : ".026106",
      "jupiter_tisserand_invariant" : "3.822",
      "epoch_osculation" : "2454395.5",
      "eccentricity" : ".5016901693436021",
      "semi_major_axis" : "1.86754372648028",
      "inclination" : "2.449780066440566",
      "ascending_node_longitude" : "180.9304087650382",
      "orbital_period" : "932.1903344402348",
      "perihelion_distance" : ".9306153980858066",
      "perihelion_argument" : "254.0707463148658",
      "aphelion_distance" : "2.804472054874754",
      "perihelion_time" : "2454431.432267796944",
      "mean_anomaly" : "346.1234171509969",
      "mean_motion" : ".3861872266849604",
      "equinox" : "J2000",
      "orbit_class" : {
        "orbit_class_type" : "APO",
        "orbit_class_range" : "a (semi-major axis) > 1.0 AU; q (perihelion) < 1.017 AU",
        "orbit_class_description" : "Near-Earth asteroid orbits which cross the Earth’s orbit similar to that of 1862 Apollo"
      }
    },
    "is_sentry_object" : false
  } ]
}